MALLIGYONG-1            
1 58400U 23179A   24166.87936110  .00005594  00000+0  25500-3 0  9990
2 58400  97.4043  53.7687 0002245 147.8640 212.2733 15.21044788 31379
